NORAD_CAT_ID,OBJECT_NAME,OBJECT_TYPE,EPOCH,MEAN_MOTION,ECCENTRICITY,INCLINATION,RA_OF_ASC_NODE,ARG_OF_PERICENTER,MEAN_ANOMALY,BSTAR,MEAN_MOTION_DOT,MEAN_MOTION_DDOT,TLE_LINE0,TLE_LINE1,TLE_LINE2,SEMIMAJOR_AXIS,PERIOD,APOGEE,PERIGEE,DECAYED
52473.0,STARLINK-3879,PAYLOAD,2023-06-02 14:59:07,15.08838418,0.0001148,53.2176,277.9658,104.9557,255.1563,-1.3498e-05,-5.03e-06,0.0,0 STARLINK-3879,1 52473U 22049Y   23153.62439537 -.00000503  00000-0 -13498-4 0  9990,2 52473  53.2176 277.9658 0001148 104.9557 255.1563 15.08838418 59610,6917.885,95.438,540.544,538.956,0.0
52473.0,STARLINK-3879,PAYLOAD,2023-06-03 13:14:31,15.08837596,0.0001201,53.2175,273.8022,116.0722,244.0394,3.2485e-05,2.29e-06,0.0,0 STARLINK-3879,1 52473U 22049Y   23154.55175562  .00000229  00000-0  32485-4 0  9998,2 52473  53.2175 273.8022 0001201 116.0722 244.0394 15.08837596 59757,6917.888,95.438,540.584,538.922,0.0
52473.0,STARLINK-3879,PAYLOAD,2023-06-03 14:49:54,15.0883853,0.0001185,53.2175,273.5051,114.6014,245.5102,3.7764e-05,3.13e-06,0.0,0 STARLINK-3879,1 52473U 22049Y   23154.61799494  .00000313  00000-0  37764-4 0  9990,2 52473  53.2175 273.5051 0001185 114.6014 245.5102 15.08838530 59926,6917.885,95.438,540.57,538.93,0.0
52473.0,STARLINK-3879,PAYLOAD,2023-06-04 14:40:41,15.08839643,9.16e-05,53.2167,269.0469,99.3191,260.7905,0.00013392,1.844e-05,0.0,0 STARLINK-3879,1 52473U 22049Y   23155.61159402  .00001844  00000-0  13392-3 0  9990,2 52473  53.2167 269.0469 0000916  99.3191 260.7905 15.08839643 59911,6917.881,95.438,540.38,539.113,0.0
52473.0,STARLINK-3879,PAYLOAD,2023-06-04 17:51:27,15.088432,9.43e-05,53.2166,268.4514,99.5483,260.5615,0.00015154,2.125e-05,0.0,0 STARLINK-3879,1 52473U 22049Y   23155.74407130  .00002125  00000-0  15154-3 0  9999,2 52473  53.2166 268.4514 0000943  99.5483 260.5615 15.08843200 60091,6917.871,95.437,540.388,539.083,0.0
52473.0,STARLINK-3879,PAYLOAD,2023-06-05 08:09:56,15.08839162,7.5e-05,53.2151,265.7737,94.2807,265.8271,3.3066e-05,2.39e-06,0.0,0 STARLINK-3879,1 52473U 22049Y   23156.34023736  .00000239  00000-0  33066-4 0  9999,2 52473  53.2151 265.7737 0000750  94.2807 265.8271 15.08839162 60188,6917.883,95.438,540.267,539.229,0.0
52473.0,STARLINK-3879,PAYLOAD,2023-06-05 14:31:28,15.08847635,7.84e-05,53.2164,264.5858,103.6149,256.493,0.00011706,1.576e-05,0.0,0 STARLINK-3879,1 52473U 22049Y   23156.60518913  .00001576  00000-0  11706-3 0  9995,2 52473  53.2164 264.5858 0000784 103.6149 256.4930 15.08847635 60063,6917.857,95.437,540.264,539.18,0.0
52473.0,STARLINK-3879,PAYLOAD,2023-06-05 16:06:51,15.08849209,8.02e-05,53.2164,264.2884,99.4636,260.6447,0.00013042,1.789e-05,0.0,0 STARLINK-3879,1 52473U 22049Y   23156.67142790  .00001789  00000-0  13042-3 0  9999,2 52473  53.2164 264.2884 0000802  99.4636 260.6447 15.08849209 60231,6917.852,95.437,540.272,539.162,0.0
52473.0,STARLINK-3879,PAYLOAD,2023-06-06 08:00:43,15.08833712,9.14e-05,53.2173,261.3156,105.1105,254.9988,-2.0735e-05,-6.18e-06,0.0,0 STARLINK-3879,1 52473U 22049Y   23157.33384226 -.00000618  00000-0 -20735-4 0  9995,2 52473  53.2173 261.3156 0000914 105.1105 254.9988 15.08833712 60330,6917.9,95.438,540.397,539.132,0.0
52473.0,STARLINK-3879,PAYLOAD,2023-06-06 11:11:29,15.08837816,0.0001099,53.218,260.7205,95.2892,264.8225,2.5847e-05,1.24e-06,0.0,0 STARLINK-3879,1 52473U 22049Y   23157.46631910  .00000124  00000-0  25847-4 0  9993,2 52473  53.2180 260.7205 0001099  95.2892 264.8225 15.08837816 60190,6917.887,95.438,540.512,538.992,0.0
52473.0,STARLINK-3879,PAYLOAD,2023-06-06 17:33:01,15.08848413,9.57e-05,53.2165,259.5297,91.1451,268.9651,3.1175e-05,2.09e-06,0.0,0 STARLINK-3879,1 52473U 22049Y   23157.73127129  .00000209  00000-0  31175-4 0  9990,2 52473  53.2165 259.5297 0000957  91.1451 268.9651 15.08848413 60393,6917.855,95.437,540.382,539.058,0.0
52473.0,STARLINK-3879,PAYLOAD,2023-06-07 06:16:07,15.08835566,8.83e-05,53.2162,257.1506,114.9218,245.1866,2.5645e-05,1.2e-06,0.0,0 STARLINK-3879,1 52473U 22049Y   23158.26119972  .00000120  00000-0  25645-4 0  9993,2 52473  53.2162 257.1506 0000883 114.9218 245.1866 15.08835566 60479,6917.894,95.438,540.37,539.148,0.0
52473.0,STARLINK-3879,PAYLOAD,2023-06-07 18:59:12,15.08847709,8.52e-05,53.2161,254.7722,95.0404,265.0685,3.7098e-05,3.03e-06,0.0,0 STARLINK-3879,1 52473U 22049Y   23158.79111241  .00000303  00000-0  37098-4 0  9990,2 52473  53.2161 254.7722 0000852  95.0404 265.0685 15.08847709 60396,6917.857,95.437,540.311,539.132,0.0
52473.0,STARLINK-3879,PAYLOAD,2023-06-08 12:28:26,15.08851708,0.0001074,53.2157,251.5045,60.3846,299.7253,-0.00011478,-2.115e-05,0.0,0 STARLINK-3879,1 52473U 22049Y   23159.51975644 -.00002115  00000-0 -11478-3 0  9994,2 52473  53.2157 251.5045 0001074  60.3846 299.7253 15.08851708 60508,6917.845,95.437,540.453,538.967,0.0
52473.0,STARLINK-3879,PAYLOAD,2023-06-08 15:39:12,15.08847187,8.83e-05,53.2163,250.9054,83.2525,276.8567,0.00012721,1.738e-05,0.0,0 STARLINK-3879,1 52473U 22049Y   23159.65223346  .00001738  00000-0  12721-3 0  9994,2 52473  53.2163 250.9054 0000883  83.2525 276.8567 15.08847187 60525,6917.858,95.437,540.334,539.113,0.0
52473.0,STARLINK-3879,PAYLOAD,2023-06-09 12:19:14,15.08843081,9.92e-05,53.217,247.036,133.2697,226.8378,3.579e-05,2.82e-06,0.0,0 STARLINK-3879,1 52473U 22049Y   23160.51335778  .00000282  00000-0  35790-4 0  9999,2 52473  53.2170 247.0360 0000992 133.2697 226.8378 15.08843081 60655,6917.871,95.437,540.422,539.05,0.0
52473.0,STARLINK-3879,PAYLOAD,2023-06-10 12:10:01,15.08839745,8.5e-05,53.216,242.5799,83.9115,276.1974,8.9536e-05,1.138e-05,0.0,0 STARLINK-3879,1 52473U 22049Y   23161.50696076  .00001138  00000-0  89536-4 0  9998,2 52473  53.2160 242.5799 0000850  83.9115 276.1974 15.08839745 60808,6917.881,95.438,540.334,539.158,0.0
52473.0,STARLINK-3879,PAYLOAD,2023-06-10 13:45:24,15.0884784,8.59e-05,53.2163,242.2816,88.295,271.8141,2.1543e-05,5.5e-07,0.0,0 STARLINK-3879,1 52473U 22049Y   23161.57319747  .00000055  00000-0  21543-4 0  9993,2 52473  53.2163 242.2816 0000859  88.2950 271.8141 15.08847840 60973,6917.856,95.437,540.316,539.127,0.0
52473.0,STARLINK-3879,PAYLOAD,2023-06-11 12:00:48,15.08843316,0.0001007,53.216,238.1188,88.9572,271.1535,9.5141e-05,1.227e-05,0.0,0 STARLINK-3879,1 52473U 22049Y   23162.50055958  .00001227  00000-0  95141-4 0  9995,2 52473  53.2160 238.1188 0001007  88.9572 271.1535 15.08843316 61110,6917.87,95.437,540.432,539.039,0.0
52473.0,STARLINK-3879,PAYLOAD,2023-06-11 21:33:07,15.08842349,9.28e-05,53.2157,236.3357,87.1688,272.941,9.0454e-05,1.152e-05,0.0,0 STARLINK-3879,1 52473U 22049Y   23162.89800009  .00001152  00000-0  90454-4 0  9991,2 52473  53.2157 236.3357 0000928  87.1688 272.9410 15.08842349 61019,6917.873,95.437,540.38,539.096,0.0
52473.0,STARLINK-3879,PAYLOAD,2023-06-12 05:30:03,15.08839839,9.03e-05,53.216,234.8496,91.2853,268.8242,3.1349e-05,2.11e-06,0.0,0 STARLINK-3879,1 52473U 22049Y   23163.22920332  .00000211  00000-0  31349-4 0  9994,2 52473  53.2160 234.8496 0000903  91.2853 268.8242 15.08839839 61223,6917.881,95.438,540.371,539.121,0.0
52473.0,STARLINK-3879,PAYLOAD,2023-06-12 11:51:35,15.08841173,9.03e-05,53.2158,233.6604,91.5498,268.5598,3.7338e-05,3.07e-06,0.0,0 STARLINK-3879,1 52473U 22049Y   23163.49416197  .00000307  00000-0  37338-4 0  9992,2 52473  53.2158 233.6604 0000903  91.5498 268.5598 15.08841173 61108,6917.877,95.437,540.366,539.117,0.0
52473.0,STARLINK-3879,PAYLOAD,2023-06-12 21:23:54,15.08838094,8.63e-05,53.2157,231.8769,92.013,268.0961,2.7034e-05,1.43e-06,0.0,0 STARLINK-3879,1 52473U 22049Y   23163.89160486  .00000143  00000-0  27034-4 0  9993,2 52473  53.2157 231.8769 0000863  92.0130 268.0961 15.08838094 61166,6917.886,95.438,540.348,539.154,0.0
52473.0,STARLINK-3879,PAYLOAD,2023-06-13 13:17:46,15.08838371,0.0001299,53.2159,228.9033,107.0028,253.1106,-3.8446e-05,-9e-06,0.0,0 STARLINK-3879,1 52473U 22049Y   23164.55400825 -.00000900  00000-0 -38446-4 0  9993,2 52473  53.2159 228.9033 0001299 107.0028 253.1106 15.08838371 61261,6917.885,95.438,540.649,538.852,0.0
52473.0,STARLINK-3879,PAYLOAD,2023-06-13 14:53:09,15.08833794,7.63e-05,53.2143,228.6032,86.8162,273.2918,3.1135e-05,2.08e-06,0.0,0 STARLINK-3879,1 52473U 22049Y   23164.62024895  .00000208  00000-0  31135-4 0  9997,2 52473  53.2143 228.6032 0000763  86.8162 273.2918 15.08833794 61435,6917.899,95.438,540.292,539.237,0.0
52473.0,STARLINK-3879,PAYLOAD,2023-06-13 21:14:41,15.08839473,8.56e-05,53.2149,227.4143,85.1254,274.9836,2.3207e-05,8.2e-07,0.0,0 STARLINK-3879,1 52473U 22049Y   23164.88520599  .00000082  00000-0  23207-4 0  9998,2 52473  53.2149 227.4143 0000856  85.1254 274.9836 15.08839473 61312,6917.882,95.438,540.339,539.155,0.0
52473.0,STARLINK-3879,PAYLOAD,2023-06-14 03:36:14,15.08836694,0.0001031,53.2156,226.2241,89.7288,270.3822,4.8293e-05,4.81e-06,0.0,0 STARLINK-3879,1 52473U 22049Y   23165.15016819  .00000481  00000-0  48293-4 0  9999,2 52473  53.2156 226.2241 0001031  89.7288 270.3822 15.08836694 61350,6917.89,95.438,540.469,539.042,0.0
52473.0,STARLINK-3879,PAYLOAD,2023-06-15 03:27:01,15.08835937,9.37e-05,53.2151,221.7634,82.0474,278.0625,0.00010765,1.426e-05,0.0,0 STARLINK-3879,1 52473U 22049Y   23166.14376806  .00001426  00000-0  10765-3 0  9996,2 52473  53.2151 221.7634 0000937  82.0474 278.0625 15.08835937 61667,6917.893,95.438,540.406,539.11,0.0
52473.0,STARLINK-3879,PAYLOAD,2023-06-15 11:23:57,15.08841522,0.0001013,53.2157,220.2769,84.6664,275.4443,8.3342e-05,1.039e-05,0.0,0 STARLINK-3879,1 52473U 22049Y   23166.47496640  .00001039  00000-0  83342-4 0  9993,2 52473  53.2157 220.2769 0001013  84.6664 275.4443 15.08841522 61555,6917.876,95.437,540.442,539.04,0.0
52473.0,STARLINK-3879,PAYLOAD,2023-06-16 09:39:20,15.08845149,9.46e-05,53.2154,216.1146,88.6443,271.4658,0.000102,1.336e-05,0.0,0 STARLINK-3879,1 52473U 22049Y   23167.40232209  .00001336  00000-0  10200-3 0  9998,2 52473  53.2154 216.1146 0000946  88.6443 271.4658 15.08845149 61854,6917.865,95.437,540.384,539.075,0.0
